[
    {
        "Altitude(m)": 617710.686567328,
        "Argument of Periapsis(deg)": 0.0,
        "Eccentricity": 0.0,
        "Inclination(deg)": 60.0,
        "Latitude(deg)": -41.102787126906094,
        "Longitude(deg)": -25.033261573592323,
        "Mean Anomaly(deg)": -49.09089999999997,
        "RAAN(deg)": 105.0,
        "Satellite Name": "Test1 481",
        "Satellite Number": 481,
        "Semi-Major Axis(m)": 6980739.136638005,
        "Time(s)": 0
    },
    {
        "Altitude(m)": 617517.9845470369,
        "Argument of Periapsis(deg)": 0.00010418945913296404,
        "Eccentricity": 0.0,
        "Inclination(deg)": 60.0,
        "Latitude(deg)": -40.63699300408624,
        "Longitude(deg)": -24.53646879877864,
        "Mean Anomaly(deg)": -48.47079385453808,
        "RAAN(deg)": 104.99957995086028,
        "Satellite Name": "Test1 481",
        "Satellite Number": 481,
        "Semi-Major Axis(m)": 6980739.136638005,
        "Time(s)": 10
    },
    {
        "Altitude(m)": 617324.3054161669,
        "Argument of Periapsis(deg)": 0.0002083789182659281,
        "Eccentricity": 0.0,
        "Inclination(deg)": 60.0,
        "Latitude(deg)": -40.16867356675408,
        "Longitude(deg)": -24.04710391101769,
        "Mean Anomaly(deg)": -47.85068770907629,
        "RAAN(deg)": 104.99915990172053,
        "Satellite Name": "Test1 481",
        "Satellite Number": 481,
        "Semi-Major Axis(m)": 6980739.136638005,
        "Time(s)": 20
    },
    {
        "Altitude(m)": 617129.7231557121,
        "Argument of Periapsis(deg)": 0.00031256837739889213,
        "Eccentricity": 0.0,
        "Inclination(deg)": 60.0,
        "Latitude(deg)": -39.697901946792285,
        "Longitude(deg)": -23.564982454934206,
        "Mean Anomaly(deg)": -47.23058156361445,
        "RAAN(deg)": 104.99873985258077,
        "Satellite Name": "Test1 481",
        "Satellite Number": 481,
        "Semi-Major Axis(m)": 6980739.136638005,
        "Time(s)": 30
    },
    {
        "Altitude(m)": 616934.3119953905,
        "Argument of Periapsis(deg)": 0.0004167578365318562,
        "Eccentricity": 0.0,
        "Inclination(deg)": 60.0,
        "Latitude(deg)": -39.224749053401986,
        "Longitude(deg)": -23.08992295342878,
        "Mean Anomaly(deg)": -46.61047541815261,
        "RAAN(deg)": 104.99831980344105,
        "Satellite Name": "Test1 481",
        "Satellite Number": 481,
        "Semi-Major Axis(m)": 6980739.136638005,
        "Time(s)": 40
    },
    {
        "Altitude(m)": 616738.146381186,
        "Argument of Periapsis(deg)": 0.0005209472956648203,
        "Eccentricity": 0.0,
        "Inclination(deg)": 60.0,
        "Latitude(deg)": -38.749283645500874,
        "Longitude(deg)": -22.62174793087108,
        "Mean Anomaly(deg)": -45.990369272690764,
        "RAAN(deg)": 104.99789975430129,
        "Satellite Name": "Test1 481",
        "Satellite Number": 481,
        "Semi-Major Axis(m)": 6980739.136638005,
        "Time(s)": 50
    },
    {
        "Altitude(m)": 616541.3009427545,
        "Argument of Periapsis(deg)": 0.0006251367547977843,
        "Eccentricity": 0.0,
        "Inclination(deg)": 60.0,
        "Latitude(deg)": -38.27157240263483,
        "Longitude(deg)": -22.16028341253664,
        "Mean Anomaly(deg)": -45.37026312722898,
        "RAAN(deg)": 104.99747970516157,
        "Satellite Name": "Test1 481",
        "Satellite Number": 481,
        "Semi-Major Axis(m)": 6980739.136638005,
        "Time(s)": 60
    },
    {
        "Altitude(m)": 616343.8504607467,
        "Argument of Periapsis(deg)": 0.0007293262139307483,
        "Eccentricity": 0.0,
        "Inclination(deg)": 60.0,
        "Latitude(deg)": -37.791679994334615,
        "Longitude(deg)": -21.705358414288412,
        "Mean Anomaly(deg)": -44.75015698176714,
        "RAAN(deg)": 104.9970596560218,
        "Satellite Name": "Test1 481",
        "Satellite Number": 481,
        "Semi-Major Axis(m)": 6980739.136638005,
        "Time(s)": 70
    },
    {
        "Altitude(m)": 616145.8698340107,
        "Argument of Periapsis(deg)": 0.0008335156730637124,
        "Eccentricity": 0.0,
        "Inclination(deg)": 60.0,
        "Latitude(deg)": -37.30966914786619,
        "Longitude(deg)": -21.256805936418658,
        "Mean Anomaly(deg)": -44.13005083630535,
        "RAAN(deg)": 104.99663960688208,
        "Satellite Name": "Test1 481",
        "Satellite Number": 481,
        "Semi-Major Axis(m)": 6980739.136638005,
        "Time(s)": 80
    },
    {
        "Altitude(m)": 615947.4340467614,
        "Argument of Periapsis(deg)": 0.0009377051321966765,
        "Eccentricity": 0.0,
        "Inclination(deg)": 60.0,
        "Latitude(deg)": -36.825600714325574,
        "Longitude(deg)": -20.814462436859255,
        "Mean Anomaly(deg)": -43.50994469084346,
        "RAAN(deg)": 104.99621955774232,
        "Satellite Name": "Test1 481",
        "Satellite Number": 481,
        "Semi-Major Axis(m)": 6980739.136638005,
        "Time(s)": 90
    },
    {
        "Altitude(m)": 615748.61813565,
        "Argument of Periapsis(deg)": 0.0010418945913296407,
        "Eccentricity": 0.0,
        "Inclination(deg)": 60.0,
        "Latitude(deg)": -36.33953373305371,
        "Longitude(deg)": -20.378167297515642,
        "Mean Anomaly(deg)": -42.88983854538161,
        "RAAN(deg)": 104.99579950860257,
        "Satellite Name": "Test1 481",
        "Satellite Number": 481,
        "Semi-Major Axis(m)": 6980739.136638005,
        "Time(s)": 100
    },
    {
        "Altitude(m)": 615549.4971568215,
        "Argument of Periapsis(deg)": 0.0011460840504626045,
        "Eccentricity": 0.0,
        "Inclination(deg)": 60.0,
        "Latitude(deg)": -35.85152549435141,
        "Longitude(deg)": -19.947763797405464,
        "Mean Anomaly(deg)": -42.26973239991982,
        "RAAN(deg)": 104.99537945946282,
        "Satellite Name": "Test1 481",
        "Satellite Number": 481,
        "Semi-Major Axis(m)": 6980739.136638005,
        "Time(s)": 110
    },
    {
        "Altitude(m)": 615350.1461529167,
        "Argument of Periapsis(deg)": 0.0012502735095955685,
        "Eccentricity": 0.0,
        "Inclination(deg)": 60.0,
        "Latitude(deg)": -35.361631600480784,
        "Longitude(deg)": -19.523098567592534,
        "Mean Anomaly(deg)": -41.64962625445798,
        "RAAN(deg)": 104.99495941032309,
        "Satellite Name": "Test1 481",
        "Satellite Number": 481,
        "Semi-Major Axis(m)": 6980739.136638005,
        "Time(s)": 120
    },
    {
        "Altitude(m)": 615150.64012007,
        "Argument of Periapsis(deg)": 0.0013544629687285324,
        "Eccentricity": 0.0,
        "Inclination(deg)": 60.0,
        "Latitude(deg)": -34.869906024953295,
        "Longitude(deg)": -19.10402104146658,
        "Mean Anomaly(deg)": -41.02952010899614,
        "RAAN(deg)": 104.99453936118334,
        "Satellite Name": "Test1 481",
        "Satellite Number": 481,
        "Semi-Major Axis(m)": 6980739.136638005,
        "Time(s)": 130
    },
    {
        "Altitude(m)": 614951.0539749238,
        "Argument of Periapsis(deg)": 0.0014586524278614966,
        "Eccentricity": 0.0,
        "Inclination(deg)": 60.0,
        "Latitude(deg)": -34.376401170111045,
        "Longitude(deg)": -18.690384413858304,
        "Mean Anomaly(deg)": -40.4094139635343,
        "RAAN(deg)": 104.99411931204361,
        "Satellite Name": "Test1 481",
        "Satellite Number": 481,
        "Semi-Major Axis(m)": 6980739.136638005,
        "Time(s)": 140
    },
    {
        "Altitude(m)": 614751.4625216079,
        "Argument of Periapsis(deg)": 0.0015628418869944607,
        "Eccentricity": 0.0,
        "Inclination(deg)": 60.0,
        "Latitude(deg)": -33.881167923008384,
        "Longitude(deg)": -18.282045083803176,
        "Mean Anomaly(deg)": -39.78930781807251,
        "RAAN(deg)": 104.99369926290386,
        "Satellite Name": "Test1 481",
        "Satellite Number": 481,
        "Semi-Major Axis(m)": 6980739.136638005,
        "Time(s)": 150
    },
    {
        "Altitude(m)": 614551.9404188334,
        "Argument of Periapsis(deg)": 0.0016670313461274247,
        "Eccentricity": 0.0,
        "Inclination(deg)": 60.0,
        "Latitude(deg)": -33.38425570961163,
        "Longitude(deg)": -17.878862094338185,
        "Mean Anomaly(deg)": -39.16920167261067,
        "RAAN(deg)": 104.99327921376413,
        "Satellite Name": "Test1 481",
        "Satellite Number": 481,
        "Semi-Major Axis(m)": 6980739.136638005,
        "Time(s)": 160
    },
    {
        "Altitude(m)": 614352.5621469456,
        "Argument of Periapsis(deg)": 0.0017712208052603888,
        "Eccentricity": 0.0,
        "Inclination(deg)": 60.0,
        "Latitude(deg)": -32.885712547341946,
        "Longitude(deg)": -17.48069808266843,
        "Mean Anomaly(deg)": -38.54909552714888,
        "RAAN(deg)": 104.99285916462438,
        "Satellite Name": "Test1 481",
        "Satellite Number": 481,
        "Semi-Major Axis(m)": 6980739.136638005,
        "Time(s)": 170
    },
    {
        "Altitude(m)": 614153.4019750984,
        "Argument of Periapsis(deg)": 0.001875410264393353,
        "Eccentricity": 0.0,
        "Inclination(deg)": 60.0,
        "Latitude(deg)": -32.38558509597956,
        "Longitude(deg)": -17.087418715374238,
        "Mean Anomaly(deg)": -37.92898938168698,
        "RAAN(deg)": 104.99243911548464,
        "Satellite Name": "Test1 481",
        "Satellite Number": 481,
        "Semi-Major Axis(m)": 6980739.136638005,
        "Time(s)": 180
    },
    {
        "Altitude(m)": 613954.5339284877,
        "Argument of Periapsis(deg)": 0.0019795997235263173,
        "Eccentricity": 0.0,
        "Inclination(deg)": 60.0,
        "Latitude(deg)": -31.883918706961747,
        "Longitude(deg)": -16.698892121911584,
        "Mean Anomaly(deg)": -37.30888323622519,
        "RAAN(deg)": 104.9920190663449,
        "Satellite Name": "Test1 481",
        "Satellite Number": 481,
        "Semi-Major Axis(m)": 6980739.136638005,
        "Time(s)": 190
    }
]